<?xml version="1.0" encoding="UTF-8"?>
<gpx xmlns:xsi="http://www.w3.org/2001/XMLSchema-instance" xmlns="http://www.topografix.com/GPX/1/1" xsi:schemaLocation="http://www.topografix.com/GPX/1/1 http://www.topografix.com/GPX/1/1/gpx.xsd" version="1.1" creator="Waterkaarten">
	<metadata>
		<name><![CDATA[T 9 Goingaristerpoulen — sneek]]></name>
		<time>2026-09-11T12:43:05Z</time>
	</metadata>
	<rte>
		<name><![CDATA[T 9 Goingaristerpoulen — sneek]]></name>
		<rtept lat="53.019366" lon="5.750678">
			<time>2026-09-11T12:43:05Z</time>
		</rtept>
		<rtept lat="53.018966" lon="5.751407">
			<time>2026-09-11T12:43:05Z</time>
		</rtept>
		<rtept lat="53.018585" lon="5.75196">
			<time>2026-09-11T12:43:05Z</time>
		</rtept>
		<rtept lat="53.017593" lon="5.752545">
			<time>2026-09-11T12:43:05Z</time>
		</rtept>
		<rtept lat="53.016747" lon="5.75297">
			<time>2026-09-11T12:43:05Z</time>
		</rtept>
		<rtept lat="53.010828" lon="5.754805">
			<time>2026-09-11T12:43:05Z</time>
		</rtept>
		<rtept lat="53.0074" lon="5.756">
			<time>2026-09-11T12:43:05Z</time>
		</rtept>
		<rtept lat="53.007153" lon="5.753564">
			<time>2026-09-11T12:43:05Z</time>
		</rtept>
		<rtept lat="53.007" lon="5.7488">
			<time>2026-09-11T12:43:05Z</time>
		</rtept>
		<rtept lat="53.00675" lon="5.7475">
			<time>2026-09-11T12:43:05Z</time>
		</rtept>
		<rtept lat="53.0065" lon="5.7462">
			<time>2026-09-11T12:43:05Z</time>
		</rtept>
		<rtept lat="53.0034" lon="5.7352">
			<time>2026-09-11T12:43:05Z</time>
		</rtept>
		<rtept lat="53.004" lon="5.7348">
			<time>2026-09-11T12:43:05Z</time>
		</rtept>
		<rtept lat="53.0042" lon="5.7347">
			<time>2026-09-11T12:43:05Z</time>
		</rtept>
		<rtept lat="53.0047" lon="5.7345">
			<time>2026-09-11T12:43:05Z</time>
		</rtept>
		<rtept lat="53.0051" lon="5.7343">
			<time>2026-09-11T12:43:05Z</time>
		</rtept>
		<rtept lat="53.0053" lon="5.7341">
			<time>2026-09-11T12:43:05Z</time>
		</rtept>
		<rtept lat="53.0054" lon="5.7338">
			<time>2026-09-11T12:43:05Z</time>
		</rtept>
		<rtept lat="53.005567" lon="5.732398">
			<time>2026-09-11T12:43:05Z</time>
		</rtept>
		<rtept lat="53.0056" lon="5.7318">
			<time>2026-09-11T12:43:05Z</time>
		</rtept>
		<rtept lat="53.0056" lon="5.7312">
			<time>2026-09-11T12:43:05Z</time>
		</rtept>
		<rtept lat="53.0056" lon="5.7306">
			<time>2026-09-11T12:43:05Z</time>
		</rtept>
		<rtept lat="53.0056" lon="5.73">
			<time>2026-09-11T12:43:05Z</time>
		</rtept>
		<rtept lat="53.005575" lon="5.72948">
			<time>2026-09-11T12:43:05Z</time>
		</rtept>
		<rtept lat="53.0055" lon="5.7287">
			<time>2026-09-11T12:43:05Z</time>
		</rtept>
		<rtept lat="53.0054" lon="5.7277">
			<time>2026-09-11T12:43:05Z</time>
		</rtept>
		<rtept lat="53.0053" lon="5.7271">
			<time>2026-09-11T12:43:05Z</time>
		</rtept>
		<rtept lat="53.005235" lon="5.726597">
			<time>2026-09-11T12:43:05Z</time>
		</rtept>
		<rtept lat="53.005151" lon="5.725882">
			<time>2026-09-11T12:43:05Z</time>
		</rtept>
		<rtept lat="53.00515" lon="5.725433">
			<time>2026-09-11T12:43:05Z</time>
		</rtept>
		<rtept lat="53.005165" lon="5.724408">
			<time>2026-09-11T12:43:05Z</time>
		</rtept>
		<rtept lat="53.005158" lon="5.723987">
			<time>2026-09-11T12:43:05Z</time>
		</rtept>
		<rtept lat="53.005082" lon="5.723238">
			<time>2026-09-11T12:43:05Z</time>
		</rtept>
		<rtept lat="53.005065" lon="5.722994">
			<time>2026-09-11T12:43:05Z</time>
		</rtept>
		<rtept lat="53.005045" lon="5.722401">
			<time>2026-09-11T12:43:05Z</time>
		</rtept>
		<rtept lat="53.005054" lon="5.722063">
			<time>2026-09-11T12:43:05Z</time>
		</rtept>
		<rtept lat="53.005154" lon="5.721449">
			<time>2026-09-11T12:43:05Z</time>
		</rtept>
		<rtept lat="53.0053" lon="5.7208">
			<time>2026-09-11T12:43:05Z</time>
		</rtept>
		<rtept lat="53.005384" lon="5.720417">
			<time>2026-09-11T12:43:05Z</time>
		</rtept>
		<rtept lat="53.0054" lon="5.7199">
			<time>2026-09-11T12:43:05Z</time>
		</rtept>
		<rtept lat="53.005" lon="5.7167">
			<time>2026-09-11T12:43:05Z</time>
		</rtept>
		<rtept lat="53.0033" lon="5.7136">
			<time>2026-09-11T12:43:05Z</time>
		</rtept>
		<rtept lat="53.0002" lon="5.7073">
			<time>2026-09-11T12:43:05Z</time>
		</rtept>
		<rtept lat="52.999607" lon="5.705972">
			<time>2026-09-11T12:43:05Z</time>
		</rtept>
		<rtept lat="52.99885" lon="5.7047">
			<time>2026-09-11T12:43:05Z</time>
		</rtept>
		<rtept lat="52.9975" lon="5.7021">
			<time>2026-09-11T12:43:05Z</time>
		</rtept>
		<rtept lat="52.9966" lon="5.7004">
			<time>2026-09-11T12:43:05Z</time>
		</rtept>
		<rtept lat="52.991" lon="5.694">
			<time>2026-09-11T12:43:05Z</time>
		</rtept>
		<rtept lat="52.9903" lon="5.6932">
			<time>2026-09-11T12:43:05Z</time>
		</rtept>
		<rtept lat="52.9898" lon="5.6926">
			<time>2026-09-11T12:43:05Z</time>
		</rtept>
		<rtept lat="52.991" lon="5.6905">
			<time>2026-09-11T12:43:05Z</time>
		</rtept>
		<rtept lat="52.9919" lon="5.6887">
			<time>2026-09-11T12:43:05Z</time>
		</rtept>
		<rtept lat="52.9927" lon="5.6875">
			<time>2026-09-11T12:43:05Z</time>
		</rtept>
		<rtept lat="52.9931" lon="5.6869">
			<time>2026-09-11T12:43:05Z</time>
		</rtept>
		<rtept lat="52.9933" lon="5.6866">
			<time>2026-09-11T12:43:05Z</time>
		</rtept>
		<rtept lat="52.9936" lon="5.6863">
			<time>2026-09-11T12:43:05Z</time>
		</rtept>
		<rtept lat="52.9956" lon="5.685">
			<time>2026-09-11T12:43:05Z</time>
		</rtept>
		<rtept lat="52.9962" lon="5.6847">
			<time>2026-09-11T12:43:05Z</time>
		</rtept>
		<rtept lat="52.9994" lon="5.6834">
			<time>2026-09-11T12:43:05Z</time>
		</rtept>
		<rtept lat="53.0044" lon="5.6809">
			<time>2026-09-11T12:43:05Z</time>
		</rtept>
		<rtept lat="53.0026" lon="5.6753">
			<time>2026-09-11T12:43:05Z</time>
		</rtept>
		<rtept lat="53.0044" lon="5.6809">
			<time>2026-09-11T12:43:05Z</time>
		</rtept>
		<rtept lat="53.0076" lon="5.6794">
			<time>2026-09-11T12:43:05Z</time>
		</rtept>
		<rtept lat="53.0087" lon="5.6789">
			<time>2026-09-11T12:43:05Z</time>
		</rtept>
		<rtept lat="53.0096" lon="5.6783">
			<time>2026-09-11T12:43:05Z</time>
		</rtept>
		<rtept lat="53.0121" lon="5.6772">
			<time>2026-09-11T12:43:05Z</time>
		</rtept>
		<rtept lat="53.0127" lon="5.6771">
			<time>2026-09-11T12:43:05Z</time>
		</rtept>
		<rtept lat="53.013757" lon="5.67696">
			<time>2026-09-11T12:43:05Z</time>
		</rtept>
		<rtept lat="53.0142" lon="5.677">
			<time>2026-09-11T12:43:05Z</time>
		</rtept>
		<rtept lat="53.0152" lon="5.6771">
			<time>2026-09-11T12:43:05Z</time>
		</rtept>
		<rtept lat="53.0154" lon="5.6771">
			<time>2026-09-11T12:43:05Z</time>
		</rtept>
		<rtept lat="53.015658" lon="5.67704">
			<time>2026-09-11T12:43:05Z</time>
		</rtept>
		<rtept lat="53.0159" lon="5.6769">
			<time>2026-09-11T12:43:05Z</time>
		</rtept>
		<rtept lat="53.017126" lon="5.675865">
			<time>2026-09-11T12:43:05Z</time>
		</rtept>
		<rtept lat="53.0174" lon="5.6755">
			<time>2026-09-11T12:43:05Z</time>
		</rtept>
		<rtept lat="53.0175" lon="5.6752">
			<time>2026-09-11T12:43:05Z</time>
		</rtept>
		<rtept lat="53.0176" lon="5.6748">
			<time>2026-09-11T12:43:05Z</time>
		</rtept>
		<rtept lat="53.017701" lon="5.674229">
			<time>2026-09-11T12:43:05Z</time>
		</rtept>
		<rtept lat="53.017875" lon="5.673645">
			<time>2026-09-11T12:43:05Z</time>
		</rtept>
		<rtept lat="53.018098" lon="5.673167">
			<time>2026-09-11T12:43:05Z</time>
		</rtept>
		<rtept lat="53.018385" lon="5.67291">
			<time>2026-09-11T12:43:05Z</time>
		</rtept>
		<rtept lat="53.019008" lon="5.67255">
			<time>2026-09-11T12:43:05Z</time>
		</rtept>
		<rtept lat="53.019788" lon="5.672126">
			<time>2026-09-11T12:43:05Z</time>
		</rtept>
		<rtept lat="53.020715" lon="5.671622">
			<time>2026-09-11T12:43:05Z</time>
		</rtept>
		<rtept lat="53.021398" lon="5.671298">
			<time>2026-09-11T12:43:05Z</time>
		</rtept>
		<rtept lat="53.021755" lon="5.671107">
			<time>2026-09-11T12:43:05Z</time>
		</rtept>
		<rtept lat="53.02207" lon="5.670925">
			<time>2026-09-11T12:43:05Z</time>
		</rtept>
		<rtept lat="53.022242" lon="5.670769">
			<time>2026-09-11T12:43:05Z</time>
		</rtept>
		<rtept lat="53.022372" lon="5.670643">
			<time>2026-09-11T12:43:05Z</time>
		</rtept>
		<rtept lat="53.0225" lon="5.6705">
			<time>2026-09-11T12:43:05Z</time>
		</rtept>
		<rtept lat="53.023378" lon="5.669197">
			<time>2026-09-11T12:43:05Z</time>
		</rtept>
		<rtept lat="53.023604" lon="5.668908">
			<time>2026-09-11T12:43:05Z</time>
		</rtept>
		<rtept lat="53.023883" lon="5.668564">
			<time>2026-09-11T12:43:05Z</time>
		</rtept>
		<rtept lat="53.0242" lon="5.6683">
			<time>2026-09-11T12:43:05Z</time>
		</rtept>
		<rtept lat="53.025547" lon="5.667292">
			<time>2026-09-11T12:43:05Z</time>
		</rtept>
		<rtept lat="53.025124" lon="5.665732">
			<time>2026-09-11T12:43:05Z</time>
		</rtept>
	</rte>
</gpx>
