<?xml version="1.0" encoding="UTF-8"?>
<gpx xmlns:xsi="http://www.w3.org/2001/XMLSchema-instance" xmlns="http://www.topografix.com/GPX/1/1" xsi:schemaLocation="http://www.topografix.com/GPX/1/1 http://www.topografix.com/GPX/1/1/gpx.xsd" version="1.1" creator="Waterkaarten">
	<metadata>
		<name>T2a Stavoren Workum ohne Ijsselmeer</name>
		<time>2026-08-31T20:04:21Z</time>
	</metadata>
	<rte>
		<name>T2a Stavoren Workum ohne Ijsselmeer</name>
		<rtept lat="52.96707057659337" lon="5.519561602336742">
			<time>2026-08-31T20:04:21Z</time>
		</rtept>
		<rtept lat="52.96650194341516" lon="5.519110879193253">
			<time>2026-08-31T20:04:21Z</time>
		</rtept>
		<rtept lat="52.96610131100262" lon="5.5188103970976075">
			<time>2026-08-31T20:04:21Z</time>
		</rtept>
		<rtept lat="52.965984997671264" lon="5.517844561790116">
			<time>2026-08-31T20:04:21Z</time>
		</rtept>
		<rtept lat="52.96566190344208" lon="5.517093356550983">
			<time>2026-08-31T20:04:21Z</time>
		</rtept>
		<rtept lat="52.96524833930506" lon="5.516814337462149">
			<time>2026-08-31T20:04:21Z</time>
		</rtept>
		<rtept lat="52.964847695274386" lon="5.517200671585162">
			<time>2026-08-31T20:04:21Z</time>
		</rtept>
		<rtept lat="52.96420148740086" lon="5.516814337462149">
			<time>2026-08-31T20:04:21Z</time>
		</rtept>
		<rtept lat="52.96314168557761" lon="5.517067919910149">
			<time>2026-08-31T20:04:21Z</time>
		</rtept>
		<rtept lat="52.96292196731412" lon="5.518462300502658">
			<time>2026-08-31T20:04:21Z</time>
		</rtept>
		<rtept lat="52.962" lon="5.5242">
			<time>2026-08-31T20:04:21Z</time>
		</rtept>
		<rtept lat="52.9589" lon="5.5339">
			<time>2026-08-31T20:04:21Z</time>
		</rtept>
		<rtept lat="52.9585" lon="5.5372">
			<time>2026-08-31T20:04:21Z</time>
		</rtept>
		<rtept lat="52.9569" lon="5.5438">
			<time>2026-08-31T20:04:21Z</time>
		</rtept>
		<rtept lat="52.9566" lon="5.5447">
			<time>2026-08-31T20:04:21Z</time>
		</rtept>
		<rtept lat="52.956124571393" lon="5.54589560400856">
			<time>2026-08-31T20:04:21Z</time>
		</rtept>
		<rtept lat="52.95567660191157" lon="5.546568360285878">
			<time>2026-08-31T20:04:21Z</time>
		</rtept>
		<rtept lat="52.9531" lon="5.5508">
			<time>2026-08-31T20:04:21Z</time>
		</rtept>
		<rtept lat="52.9518" lon="5.553">
			<time>2026-08-31T20:04:21Z</time>
		</rtept>
		<rtept lat="52.94675051361112" lon="5.5617651715650505">
			<time>2026-08-31T20:04:21Z</time>
		</rtept>
		<rtept lat="52.945896869889204" lon="5.560197830200195">
			<time>2026-08-31T20:04:21Z</time>
		</rtept>
		<rtept lat="52.94329468434556" lon="5.553621051930731">
			<time>2026-08-31T20:04:21Z</time>
		</rtept>
		<rtept lat="52.94054363229282" lon="5.546250337100612">
			<time>2026-08-31T20:04:21Z</time>
		</rtept>
		<rtept lat="52.93915349246383" lon="5.5426454511760035">
			<time>2026-08-31T20:04:21Z</time>
		</rtept>
		<rtept lat="52.937737443652544" lon="5.539083477843556">
			<time>2026-08-31T20:04:21Z</time>
		</rtept>
		<rtept lat="52.934982805004644" lon="5.531852232048916">
			<time>2026-08-31T20:04:21Z</time>
		</rtept>
		<rtept lat="52.93231852759099" lon="5.524063090249243">
			<time>2026-08-31T20:04:21Z</time>
		</rtept>
		<rtept lat="52.93164034980459" lon="5.522496748444263">
			<time>2026-08-31T20:04:21Z</time>
		</rtept>
		<rtept lat="52.931329081836715" lon="5.52177784188658">
			<time>2026-08-31T20:04:21Z</time>
		</rtept>
		<rtept lat="52.93033961346338" lon="5.519492593523917">
			<time>2026-08-31T20:04:21Z</time>
		</rtept>
		<rtept lat="52.9287551235331" lon="5.515855521450122">
			<time>2026-08-31T20:04:21Z</time>
		</rtept>
		<rtept lat="52.92802429842856" lon="5.513355719759116">
			<time>2026-08-31T20:04:21Z</time>
		</rtept>
		<rtept lat="52.92622628680492" lon="5.509986852074179">
			<time>2026-08-31T20:04:21Z</time>
		</rtept>
		<rtept lat="52.9215" lon="5.5035">
			<time>2026-08-31T20:04:21Z</time>
		</rtept>
		<rtept lat="52.9152882391958" lon="5.49461229959542">
			<time>2026-08-31T20:04:21Z</time>
		</rtept>
		<rtept lat="52.9114480714139" lon="5.48943042755127">
			<time>2026-08-31T20:04:21Z</time>
		</rtept>
		<rtept lat="52.91025433817386" lon="5.487821102142335">
			<time>2026-08-31T20:04:21Z</time>
		</rtept>
		<rtept lat="52.90890528296514" lon="5.486061573028565">
			<time>2026-08-31T20:04:21Z</time>
		</rtept>
		<rtept lat="52.907109712659775" lon="5.483620762825012">
			<time>2026-08-31T20:04:21Z</time>
		</rtept>
		<rtept lat="52.9052057473277" lon="5.48118879624218">
			<time>2026-08-31T20:04:21Z</time>
		</rtept>
		<rtept lat="52.90417516999697" lon="5.479575991630555">
			<time>2026-08-31T20:04:21Z</time>
		</rtept>
		<rtept lat="52.9027016768188" lon="5.47646919798491">
			<time>2026-08-31T20:04:21Z</time>
		</rtept>
		<rtept lat="52.9026898819421" lon="5.47640360513977">
			<time>2026-08-31T20:04:21Z</time>
		</rtept>
		<rtept lat="52.90108155884" lon="5.46746017676059">
			<time>2026-08-31T20:04:21Z</time>
		</rtept>
		<rtept lat="52.9008304149834" lon="5.46676125831721">
			<time>2026-08-31T20:04:21Z</time>
		</rtept>
		<rtept lat="52.8998706620832" lon="5.46406976672438">
			<time>2026-08-31T20:04:21Z</time>
		</rtept>
		<rtept lat="52.8983626568513" lon="5.46145176963311">
			<time>2026-08-31T20:04:21Z</time>
		</rtept>
		<rtept lat="52.8932996362831" lon="5.45267683452057">
			<time>2026-08-31T20:04:21Z</time>
		</rtept>
		<rtept lat="52.89126664647271" lon="5.447190999984742">
			<time>2026-08-31T20:04:21Z</time>
		</rtept>
		<rtept lat="52.89061782914449" lon="5.445492556001806">
			<time>2026-08-31T20:04:21Z</time>
		</rtept>
		<rtept lat="52.889201375034766" lon="5.441698997900196">
			<time>2026-08-31T20:04:21Z</time>
		</rtept>
		<rtept lat="52.8874392615653" lon="5.43697986530488">
			<time>2026-08-31T20:04:21Z</time>
		</rtept>
		<rtept lat="52.8872958492641" lon="5.43608832806796">
			<time>2026-08-31T20:04:21Z</time>
		</rtept>
		<rtept lat="52.8872152970848" lon="5.43528600235641">
			<time>2026-08-31T20:04:21Z</time>
		</rtept>
		<rtept lat="52.8871634013602" lon="5.42990799608794">
			<time>2026-08-31T20:04:21Z</time>
		</rtept>
		<rtept lat="52.8871287449348" lon="5.42608991852555">
			<time>2026-08-31T20:04:21Z</time>
		</rtept>
		<rtept lat="52.8871557744321" lon="5.42586709908757">
			<time>2026-08-31T20:04:21Z</time>
		</rtept>
		<rtept lat="52.8878925104021" lon="5.41928768186237">
			<time>2026-08-31T20:04:21Z</time>
		</rtept>
		<rtept lat="52.8879095697557" lon="5.41642537297979">
			<time>2026-08-31T20:04:21Z</time>
		</rtept>
		<rtept lat="52.8874824911822" lon="5.41392290130945">
			<time>2026-08-31T20:04:21Z</time>
		</rtept>
		<rtept lat="52.8874735149289" lon="5.41387832696446">
			<time>2026-08-31T20:04:21Z</time>
		</rtept>
		<rtept lat="52.8867674252756" lon="5.41107814200012">
			<time>2026-08-31T20:04:21Z</time>
		</rtept>
		<rtept lat="52.88579155499121" lon="5.407107096770584">
			<time>2026-08-31T20:04:21Z</time>
		</rtept>
		<rtept lat="52.8850862649835" lon="5.404245891955">
			<time>2026-08-31T20:04:21Z</time>
		</rtept>
		<rtept lat="52.8849874592749" lon="5.40382996118784">
			<time>2026-08-31T20:04:21Z</time>
		</rtept>
		<rtept lat="52.8844332434393" lon="5.4019235698774">
			<time>2026-08-31T20:04:21Z</time>
		</rtept>
		<rtept lat="52.8837915508171" lon="5.39925873258292">
			<time>2026-08-31T20:04:21Z</time>
		</rtept>
		<rtept lat="52.8837377733096" lon="5.39772864810321">
			<time>2026-08-31T20:04:21Z</time>
		</rtept>
		<rtept lat="52.884133490605" lon="5.39238087273937">
			<time>2026-08-31T20:04:21Z</time>
		</rtept>
		<rtept lat="52.8841874930716" lon="5.38899389228343">
			<time>2026-08-31T20:04:21Z</time>
		</rtept>
		<rtept lat="52.8841066245983" lon="5.38700329625323">
			<time>2026-08-31T20:04:21Z</time>
		</rtept>
		<rtept lat="52.8823359972455" lon="5.37813514086809">
			<time>2026-08-31T20:04:21Z</time>
		</rtept>
		<rtept lat="52.8810146208947" lon="5.37376831451204">
			<time>2026-08-31T20:04:21Z</time>
		</rtept>
		<rtept lat="52.8805111662541" lon="5.37186716766044">
			<time>2026-08-31T20:04:21Z</time>
		</rtept>
		<rtept lat="52.880088527147" lon="5.36977293232877">
			<time>2026-08-31T20:04:21Z</time>
		</rtept>
		<rtept lat="52.8797827094932" lon="5.36791634349807">
			<time>2026-08-31T20:04:21Z</time>
		</rtept>
		<rtept lat="52.8795848221868" lon="5.36677270221076">
			<time>2026-08-31T20:04:21Z</time>
		</rtept>
		<rtept lat="52.8797822913072" lon="5.36552489653913">
			<time>2026-08-31T20:04:21Z</time>
		</rtept>
		<rtept lat="52.8798791020114" lon="5.365233421325684">
			<time>2026-08-31T20:04:21Z</time>
		</rtept>
		<rtept lat="52.8800786773691" lon="5.36470778730526">
			<time>2026-08-31T20:04:21Z</time>
		</rtept>
		<rtept lat="52.8805512788981" lon="5.36382750146556">
			<time>2026-08-31T20:04:21Z</time>
		</rtept>
		<rtept lat="52.8807186100657" lon="5.36361639860981">
			<time>2026-08-31T20:04:21Z</time>
		</rtept>
		<rtept lat="52.8808954734739" lon="5.363481889904">
			<time>2026-08-31T20:04:21Z</time>
		</rtept>
		<rtept lat="52.8812249669272" lon="5.36330013334378">
			<time>2026-08-31T20:04:21Z</time>
		</rtept>
		<rtept lat="52.8808954734739" lon="5.363481889904">
			<time>2026-08-31T20:04:21Z</time>
		</rtept>
		<rtept lat="52.8807186100657" lon="5.36361639860981">
			<time>2026-08-31T20:04:21Z</time>
		</rtept>
		<rtept lat="52.8805512788981" lon="5.36382750146556">
			<time>2026-08-31T20:04:21Z</time>
		</rtept>
		<rtept lat="52.8800786773691" lon="5.36470778730526">
			<time>2026-08-31T20:04:21Z</time>
		</rtept>
		<rtept lat="52.8798791020114" lon="5.365233421325684">
			<time>2026-08-31T20:04:21Z</time>
		</rtept>
		<rtept lat="52.8797822913072" lon="5.36552489653913">
			<time>2026-08-31T20:04:21Z</time>
		</rtept>
		<rtept lat="52.8795848221868" lon="5.36677270221076">
			<time>2026-08-31T20:04:21Z</time>
		</rtept>
		<rtept lat="52.8797827094932" lon="5.36791634349807">
			<time>2026-08-31T20:04:21Z</time>
		</rtept>
		<rtept lat="52.880088527147" lon="5.36977293232877">
			<time>2026-08-31T20:04:21Z</time>
		</rtept>
		<rtept lat="52.8805111662541" lon="5.37186716766044">
			<time>2026-08-31T20:04:21Z</time>
		</rtept>
		<rtept lat="52.8810146208947" lon="5.37376831451204">
			<time>2026-08-31T20:04:21Z</time>
		</rtept>
		<rtept lat="52.8823359972455" lon="5.37813514086809">
			<time>2026-08-31T20:04:21Z</time>
		</rtept>
		<rtept lat="52.8841066245983" lon="5.38700329625323">
			<time>2026-08-31T20:04:21Z</time>
		</rtept>
		<rtept lat="52.8841874930716" lon="5.38899389228343">
			<time>2026-08-31T20:04:21Z</time>
		</rtept>
		<rtept lat="52.884133490605" lon="5.39238087273937">
			<time>2026-08-31T20:04:21Z</time>
		</rtept>
		<rtept lat="52.8837377733096" lon="5.39772864810321">
			<time>2026-08-31T20:04:21Z</time>
		</rtept>
		<rtept lat="52.8837915508171" lon="5.39925873258292">
			<time>2026-08-31T20:04:21Z</time>
		</rtept>
		<rtept lat="52.8844332434393" lon="5.4019235698774">
			<time>2026-08-31T20:04:21Z</time>
		</rtept>
		<rtept lat="52.8849874592749" lon="5.40382996118784">
			<time>2026-08-31T20:04:21Z</time>
		</rtept>
		<rtept lat="52.8850862649835" lon="5.404245891955">
			<time>2026-08-31T20:04:21Z</time>
		</rtept>
		<rtept lat="52.88579155499121" lon="5.407107096770584">
			<time>2026-08-31T20:04:21Z</time>
		</rtept>
		<rtept lat="52.8867674252756" lon="5.41107814200012">
			<time>2026-08-31T20:04:21Z</time>
		</rtept>
		<rtept lat="52.8874735149289" lon="5.41387832696446">
			<time>2026-08-31T20:04:21Z</time>
		</rtept>
		<rtept lat="52.8874824911822" lon="5.41392290130945">
			<time>2026-08-31T20:04:21Z</time>
		</rtept>
		<rtept lat="52.8879095697557" lon="5.41642537297979">
			<time>2026-08-31T20:04:21Z</time>
		</rtept>
		<rtept lat="52.8878925104021" lon="5.41928768186237">
			<time>2026-08-31T20:04:21Z</time>
		</rtept>
		<rtept lat="52.8871557744321" lon="5.42586709908757">
			<time>2026-08-31T20:04:21Z</time>
		</rtept>
		<rtept lat="52.8871287449348" lon="5.42608991852555">
			<time>2026-08-31T20:04:21Z</time>
		</rtept>
		<rtept lat="52.8871634013602" lon="5.42990799608794">
			<time>2026-08-31T20:04:21Z</time>
		</rtept>
		<rtept lat="52.8872152970848" lon="5.43528600235641">
			<time>2026-08-31T20:04:21Z</time>
		</rtept>
		<rtept lat="52.8872958492641" lon="5.43608832806796">
			<time>2026-08-31T20:04:21Z</time>
		</rtept>
		<rtept lat="52.8874392615653" lon="5.43697986530488">
			<time>2026-08-31T20:04:21Z</time>
		</rtept>
		<rtept lat="52.889201375034766" lon="5.441698997900196">
			<time>2026-08-31T20:04:21Z</time>
		</rtept>
		<rtept lat="52.89061782914449" lon="5.445492556001806">
			<time>2026-08-31T20:04:21Z</time>
		</rtept>
		<rtept lat="52.89126664647271" lon="5.447190999984742">
			<time>2026-08-31T20:04:21Z</time>
		</rtept>
		<rtept lat="52.8932996362831" lon="5.45267683452057">
			<time>2026-08-31T20:04:21Z</time>
		</rtept>
		<rtept lat="52.8983626568513" lon="5.46145176963311">
			<time>2026-08-31T20:04:21Z</time>
		</rtept>
		<rtept lat="52.8998706620832" lon="5.46406976672438">
			<time>2026-08-31T20:04:21Z</time>
		</rtept>
		<rtept lat="52.9008304149834" lon="5.46676125831721">
			<time>2026-08-31T20:04:21Z</time>
		</rtept>
		<rtept lat="52.90108155884" lon="5.46746017676059">
			<time>2026-08-31T20:04:21Z</time>
		</rtept>
		<rtept lat="52.9026898819421" lon="5.47640360513977">
			<time>2026-08-31T20:04:21Z</time>
		</rtept>
		<rtept lat="52.9027016768188" lon="5.47646919798491">
			<time>2026-08-31T20:04:21Z</time>
		</rtept>
		<rtept lat="52.90417516999697" lon="5.479575991630555">
			<time>2026-08-31T20:04:21Z</time>
		</rtept>
		<rtept lat="52.9052057473277" lon="5.48118879624218">
			<time>2026-08-31T20:04:21Z</time>
		</rtept>
		<rtept lat="52.907109712659775" lon="5.483620762825012">
			<time>2026-08-31T20:04:21Z</time>
		</rtept>
		<rtept lat="52.90890528296514" lon="5.486061573028565">
			<time>2026-08-31T20:04:21Z</time>
		</rtept>
		<rtept lat="52.91025433817386" lon="5.487821102142335">
			<time>2026-08-31T20:04:21Z</time>
		</rtept>
		<rtept lat="52.9114480714139" lon="5.48943042755127">
			<time>2026-08-31T20:04:21Z</time>
		</rtept>
		<rtept lat="52.9152882391958" lon="5.49461229959542">
			<time>2026-08-31T20:04:21Z</time>
		</rtept>
		<rtept lat="52.9215" lon="5.5035">
			<time>2026-08-31T20:04:21Z</time>
		</rtept>
		<rtept lat="52.92622628680492" lon="5.509986852074179">
			<time>2026-08-31T20:04:21Z</time>
		</rtept>
		<rtept lat="52.92802429842856" lon="5.513355719759116">
			<time>2026-08-31T20:04:21Z</time>
		</rtept>
		<rtept lat="52.9287551235331" lon="5.515855521450122">
			<time>2026-08-31T20:04:21Z</time>
		</rtept>
		<rtept lat="52.93033961346338" lon="5.519492593523917">
			<time>2026-08-31T20:04:21Z</time>
		</rtept>
		<rtept lat="52.931329081836715" lon="5.52177784188658">
			<time>2026-08-31T20:04:21Z</time>
		</rtept>
		<rtept lat="52.93164034980459" lon="5.522496748444263">
			<time>2026-08-31T20:04:21Z</time>
		</rtept>
		<rtept lat="52.93231852759099" lon="5.524063090249243">
			<time>2026-08-31T20:04:21Z</time>
		</rtept>
		<rtept lat="52.934982805004644" lon="5.531852232048916">
			<time>2026-08-31T20:04:21Z</time>
		</rtept>
		<rtept lat="52.937737443652544" lon="5.539083477843556">
			<time>2026-08-31T20:04:21Z</time>
		</rtept>
		<rtept lat="52.93915349246383" lon="5.5426454511760035">
			<time>2026-08-31T20:04:21Z</time>
		</rtept>
		<rtept lat="52.94054363229282" lon="5.546250337100612">
			<time>2026-08-31T20:04:21Z</time>
		</rtept>
		<rtept lat="52.94329468434556" lon="5.553621051930731">
			<time>2026-08-31T20:04:21Z</time>
		</rtept>
		<rtept lat="52.945896869889204" lon="5.560197830200195">
			<time>2026-08-31T20:04:21Z</time>
		</rtept>
		<rtept lat="52.94675051361112" lon="5.5617651715650505">
			<time>2026-08-31T20:04:21Z</time>
		</rtept>
		<rtept lat="52.9518" lon="5.553">
			<time>2026-08-31T20:04:21Z</time>
		</rtept>
		<rtept lat="52.9531" lon="5.5508">
			<time>2026-08-31T20:04:21Z</time>
		</rtept>
		<rtept lat="52.95567660191157" lon="5.546568360285878">
			<time>2026-08-31T20:04:21Z</time>
		</rtept>
		<rtept lat="52.956124571393" lon="5.54589560400856">
			<time>2026-08-31T20:04:21Z</time>
		</rtept>
		<rtept lat="52.9566" lon="5.5447">
			<time>2026-08-31T20:04:21Z</time>
		</rtept>
		<rtept lat="52.9569" lon="5.5438">
			<time>2026-08-31T20:04:21Z</time>
		</rtept>
		<rtept lat="52.9585" lon="5.5372">
			<time>2026-08-31T20:04:21Z</time>
		</rtept>
		<rtept lat="52.9589" lon="5.5339">
			<time>2026-08-31T20:04:21Z</time>
		</rtept>
		<rtept lat="52.962" lon="5.5242">
			<time>2026-08-31T20:04:21Z</time>
		</rtept>
		<rtept lat="52.96292196731412" lon="5.518462300502658">
			<time>2026-08-31T20:04:21Z</time>
		</rtept>
		<rtept lat="52.96314168557761" lon="5.517067919910149">
			<time>2026-08-31T20:04:21Z</time>
		</rtept>
		<rtept lat="52.9634" lon="5.5156">
			<time>2026-08-31T20:04:21Z</time>
		</rtept>
		<rtept lat="52.9637" lon="5.5137">
			<time>2026-08-31T20:04:21Z</time>
		</rtept>
		<rtept lat="52.964430891610135" lon="5.510614505793298">
			<time>2026-08-31T20:04:21Z</time>
		</rtept>
		<rtept lat="52.9651" lon="5.5079">
			<time>2026-08-31T20:04:21Z</time>
		</rtept>
		<rtept lat="52.9668" lon="5.5023">
			<time>2026-08-31T20:04:21Z</time>
		</rtept>
		<rtept lat="52.968" lon="5.4994">
			<time>2026-08-31T20:04:21Z</time>
		</rtept>
		<rtept lat="52.9693" lon="5.4956">
			<time>2026-08-31T20:04:21Z</time>
		</rtept>
		<rtept lat="52.9708" lon="5.492">
			<time>2026-08-31T20:04:21Z</time>
		</rtept>
		<rtept lat="52.9726" lon="5.4876">
			<time>2026-08-31T20:04:21Z</time>
		</rtept>
		<rtept lat="52.9737" lon="5.4843">
			<time>2026-08-31T20:04:21Z</time>
		</rtept>
		<rtept lat="52.9756" lon="5.4789">
			<time>2026-08-31T20:04:21Z</time>
		</rtept>
		<rtept lat="52.9767" lon="5.476">
			<time>2026-08-31T20:04:21Z</time>
		</rtept>
		<rtept lat="52.97703982705066" lon="5.475311278161383">
			<time>2026-08-31T20:04:21Z</time>
		</rtept>
		<rtept lat="52.9776" lon="5.4744">
			<time>2026-08-31T20:04:21Z</time>
		</rtept>
		<rtept lat="52.97803145757499" lon="5.473455184981112">
			<time>2026-08-31T20:04:21Z</time>
		</rtept>
		<rtept lat="52.9782" lon="5.4729">
			<time>2026-08-31T20:04:21Z</time>
		</rtept>
		<rtept lat="52.97824786902912" lon="5.4721999168396005">
			<time>2026-08-31T20:04:21Z</time>
		</rtept>
		<rtept lat="52.9782" lon="5.4716">
			<time>2026-08-31T20:04:21Z</time>
		</rtept>
		<rtept lat="52.9779" lon="5.4703">
			<time>2026-08-31T20:04:21Z</time>
		</rtept>
		<rtept lat="52.97766646266699" lon="5.469088544730646">
			<time>2026-08-31T20:04:21Z</time>
		</rtept>
		<rtept lat="52.9776" lon="5.4685">
			<time>2026-08-31T20:04:21Z</time>
		</rtept>
		<rtept lat="52.977672922780656" lon="5.467935222106043">
			<time>2026-08-31T20:04:21Z</time>
		</rtept>
		<rtept lat="52.978" lon="5.4671">
			<time>2026-08-31T20:04:21Z</time>
		</rtept>
		<rtept lat="52.97881594394065" lon="5.465356260538101">
			<time>2026-08-31T20:04:21Z</time>
		</rtept>
		<rtept lat="52.979275001150285" lon="5.464255219378575">
			<time>2026-08-31T20:04:21Z</time>
		</rtept>
		<rtept lat="52.9788420572188" lon="5.46370639699905">
			<time>2026-08-31T20:04:21Z</time>
		</rtept>
		<rtept lat="52.9784575292858" lon="5.4633467040596">
			<time>2026-08-31T20:04:21Z</time>
		</rtept>
		<rtept lat="52.9779117618484" lon="5.46269732676536">
			<time>2026-08-31T20:04:21Z</time>
		</rtept>
	</rte>
</gpx>
